start=new Date('2022-04-17T00:00:00.000Z').valueOf();
sats=[{"MEAN_MOTION_DDOT":"0.0000000000000","CENTER_NAME":"EARTH","REF_FRAME":"TEME","RCS_SIZE":"LARGE","ARG_OF_PERICENTER":"61.2611","OBJECT_NAME":"STARLINK-3452","TLE_LINE1":"1 51744U 22016AG  22106.91668981 -.00716317  00000-0 -10825-1 0  9995","LAUNCH_DATE":"2022-02-21","ELEMENT_SET_NO":"999","MEAN_ANOMALY":"142.1861","MEAN_MOTION_DOT":"-0.00716317","NORAD_CAT_ID":"51744","COUNTRY_CODE":"US","MEAN_MOTION":"15.56557273","DECAY_DATE":null,"OBJECT_ID":"2022-016AG","EPHEMERIS_TYPE":"0","RA_OF_ASC_NODE":"231.3960","INCLINATION":"53.2172","CLASSIFICATION_TYPE":"U","GP_ID":"201423629","SEMIMAJOR_AXIS":"6775.767","EPOCH":"2022-04-16T22:00:01.999584","REV_AT_EPOCH":"371","MEAN_ELEMENT_THEORY":"SGP4","FILE":"3404767","SITE":"AFETR","BSTAR":"-0.01082500000000","PERIOD":"92.512","APOAPSIS":"398.547","TIME_SYSTEM":"UTC","PERIAPSIS":"396.716","TLE_LINE2":"2 51744  53.2172 231.3960 0001351  61.2611 142.1861 15.56557273  3714","OBJECT_TYPE":"PAYLOAD","ECCENTRICITY":"0.00013510"},{"MEAN_ANOMALY":"131.1809","LAUNCH_DATE":"2022-02-21","ELEMENT_SET_NO":"999","TLE_LINE1":"1 51745U 22016AH  22106.91668981 -.00715510  00000-0 -11006-1 0  9992","OBJECT_NAME":"STARLINK-3449","ARG_OF_PERICENTER":"50.7547","RCS_SIZE":"LARGE","REF_FRAME":"TEME","CENTER_NAME":"EARTH","MEAN_MOTION_DDOT":"0.0000000000000","EPHEMERIS_TYPE":"0","OBJECT_ID":"2022-016AH","DECAY_DATE":null,"MEAN_MOTION":"15.56079910","COUNTRY_CODE":"US","NORAD_CAT_ID":"51745","MEAN_MOTION_DOT":"-0.00715510","MEAN_ELEMENT_THEORY":"SGP4","EPOCH":"2022-04-16T22:00:01.999584","REV_AT_EPOCH":"371","SEMIMAJOR_AXIS":"6777.152","GP_ID":"201423365","INCLINATION":"53.2171","RA_OF_ASC_NODE":"231.3989","CLASSIFICATION_TYPE":"U","ECCENTRICITY":"0.00014750","OBJECT_TYPE":"PAYLOAD","TLE_LINE2":"2 51745  53.2171 231.3989 0001475  50.7547 131.1809 15.56079910  3710","PERIAPSIS":"398.018","TIME_SYSTEM":"UTC","APOAPSIS":"400.017","PERIOD":"92.540","BSTAR":"-0.01100600000000","SITE":"AFETR","FILE":"3404767"},{"GP_ID":"201423543","CLASSIFICATION_TYPE":"U","RA_OF_ASC_NODE":"230.7392","INCLINATION":"53.2137","EPOCH":"2022-04-16T22:00:01.999584","REV_AT_EPOCH":"371","SEMIMAJOR_AXIS":"6728.159","MEAN_ELEMENT_THEORY":"SGP4","FILE":"3404767","PERIOD":"91.539","APOAPSIS":"351.524","BSTAR":"0.00039399000000","SITE":"AFETR","OBJECT_TYPE":"PAYLOAD","TLE_LINE2":"2 51746  53.2137 230.7392 0002230  24.7297 146.8452 15.73107562  3718","TIME_SYSTEM":"UTC","PERIAPSIS":"348.523","ECCENTRICITY":"0.00022300","REF_FRAME":"TEME","CENTER_NAME":"EARTH","MEAN_MOTION_DDOT":"0.0000000000000","OBJECT_NAME":"STARLINK-3502","ARG_OF_PERICENTER":"24.7297","RCS_SIZE":"LARGE","TLE_LINE1":"1 51746U 22016AJ  22106.91668981  .00054820  00000-0  39399-3 0  9998","MEAN_ANOMALY":"146.8452","LAUNCH_DATE":"2022-02-21","ELEMENT_SET_NO":"999","NORAD_CAT_ID":"51746","MEAN_MOTION_DOT":"0.00054820","COUNTRY_CODE":"US","MEAN_MOTION":"15.73107562","OBJECT_ID":"2022-016AJ","DECAY_DATE":null,"EPHEMERIS_TYPE":"0"},{"BSTAR":"-0.01086100000000","PERIOD":"92.517","APOAPSIS":"398.853","SITE":"AFETR","FILE":"3404767","ECCENTRICITY":"0.00014020","TLE_LINE2":"2 51747  53.2172 231.3967 0001402  55.5144 143.6205 15.56463717  3715","OBJECT_TYPE":"PAYLOAD","PERIAPSIS":"396.953","TIME_SYSTEM":"UTC","GP_ID":"201423452","RA_OF_ASC_NODE":"231.3967","INCLINATION":"53.2172","CLASSIFICATION_TYPE":"U","MEAN_ELEMENT_THEORY":"SGP4","REV_AT_EPOCH":"371","EPOCH":"2022-04-16T22:00:01.999584","SEMIMAJOR_AXIS":"6776.038","COUNTRY_CODE":"US","MEAN_MOTION":"15.56463717","NORAD_CAT_ID":"51747","MEAN_MOTION_DOT":"-0.00716206","EPHEMERIS_TYPE":"0","OBJECT_ID":"2022-016AK","DECAY_DATE":null,"ARG_OF_PERICENTER":"55.5144","OBJECT_NAME":"STARLINK-3446","RCS_SIZE":"LARGE","REF_FRAME":"TEME","MEAN_MOTION_DDOT":"0.0000000000000","CENTER_NAME":"EARTH","LAUNCH_DATE":"2022-02-21","ELEMENT_SET_NO":"999","MEAN_ANOMALY":"143.6205","TLE_LINE1":"1 51747U 22016AK  22106.91668981 -.00716206  00000-0 -10861-1 0  9995"},{"TLE_LINE1":"1 51748U 22016AL  22106.91668981  .00073238  00000-0  52430-3 0  9995","MEAN_ANOMALY":"154.7901","ELEMENT_SET_NO":"999","LAUNCH_DATE":"2022-02-21","REF_FRAME":"TEME","CENTER_NAME":"EARTH","MEAN_MOTION_DDOT":"0.0000000000000","OBJECT_NAME":"STARLINK-3501","ARG_OF_PERICENTER":"18.0882","RCS_SIZE":"LARGE","OBJECT_ID":"2022-016AL","DECAY_DATE":null,"EPHEMERIS_TYPE":"0","NORAD_CAT_ID":"51748","MEAN_MOTION_DOT":"0.00073238","MEAN_MOTION":"15.73082458","COUNTRY_CODE":"US","EPOCH":"2022-04-16T22:00:01.999584","REV_AT_EPOCH":"371","SEMIMAJOR_AXIS":"6728.230","MEAN_ELEMENT_THEORY":"SGP4","GP_ID":"201423274","RA_OF_ASC_NODE":"230.7366","CLASSIFICATION_TYPE":"U","INCLINATION":"53.2136","OBJECT_TYPE":"PAYLOAD","TLE_LINE2":"2 51748  53.2136 230.7366 0002096  18.0882 154.7901 15.73082458  3719","PERIAPSIS":"348.685","TIME_SYSTEM":"UTC","ECCENTRICITY":"0.00020960","FILE":"3404767","APOAPSIS":"351.506","PERIOD":"91.540","BSTAR":"0.00052430000000","SITE":"AFETR"},{"FILE":"3404767","SITE":"AFETR","BSTAR":"-0.01128600000000","PERIOD":"92.583","APOAPSIS":"402.166","TIME_SYSTEM":"UTC","PERIAPSIS":"400.028","TLE_LINE2":"2 51749  53.2171 231.3912 0001577  43.6805 112.0002 15.55363953  3716","OBJECT_TYPE":"PAYLOAD","ECCENTRICITY":"0.00015770","CLASSIFICATION_TYPE":"U","RA_OF_ASC_NODE":"231.3912","INCLINATION":"53.2171","GP_ID":"201423720","SEMIMAJOR_AXIS":"6779.232","REV_AT_EPOCH":"371","EPOCH":"2022-04-16T22:00:01.999584","MEAN_ELEMENT_THEORY":"SGP4","MEAN_MOTION_DOT":"-0.00714532","NORAD_CAT_ID":"51749","COUNTRY_CODE":"US","MEAN_MOTION":"15.55363953","DECAY_DATE":null,"OBJECT_ID":"2022-016AM","EPHEMERIS_TYPE":"0","MEAN_MOTION_DDOT":"0.0000000000000","CENTER_NAME":"EARTH","REF_FRAME":"TEME","RCS_SIZE":"LARGE","ARG_OF_PERICENTER":"43.6805","OBJECT_NAME":"STARLINK-3451","TLE_LINE1":"1 51749U 22016AM  22106.91668981 -.00714532  00000-0 -11286-1 0  9999","ELEMENT_SET_NO":"999","LAUNCH_DATE":"2022-02-21","MEAN_ANOMALY":"112.0002"},{"MEAN_MOTION":"15.73076056","COUNTRY_CODE":"US","MEAN_MOTION_DOT":"0.00077990","NORAD_CAT_ID":"51750","EPHEMERIS_TYPE":"0","DECAY_DATE":null,"OBJECT_ID":"2022-016AN","RCS_SIZE":"LARGE","ARG_OF_PERICENTER":"30.3193","OBJECT_NAME":"STARLINK-3505","MEAN_MOTION_DDOT":"0.0000000000000","CENTER_NAME":"EARTH","REF_FRAME":"TEME","ELEMENT_SET_NO":"999","LAUNCH_DATE":"2022-02-21","MEAN_ANOMALY":"143.8622","TLE_LINE1":"1 51750U 22016AN  22106.91668981  .00077990  00000-0  55787-3 0  9995","SITE":"AFETR","BSTAR":"0.00055787000000","APOAPSIS":"351.459","PERIOD":"91.540","FILE":"3404767","ECCENTRICITY":"0.00019990","TIME_SYSTEM":"UTC","PERIAPSIS":"348.769","TLE_LINE2":"2 51750  53.2137 230.7344 0001999  30.3193 143.8622 15.73076056  3718","OBJECT_TYPE":"PAYLOAD","CLASSIFICATION_TYPE":"U","RA_OF_ASC_NODE":"230.7344","INCLINATION":"53.2137","GP_ID":"201423898","MEAN_ELEMENT_THEORY":"SGP4","SEMIMAJOR_AXIS":"6728.249","REV_AT_EPOCH":"371","EPOCH":"2022-04-16T22:00:01.999584"},{"CENTER_NAME":"EARTH","MEAN_MOTION_DDOT":"0.0000000000000","REF_FRAME":"TEME","RCS_SIZE":"LARGE","OBJECT_NAME":"STARLINK-3506","ARG_OF_PERICENTER":"21.9620","TLE_LINE1":"1 51751U 22016AP  22106.91668981  .00063081  00000-0  45286-3 0  9995","MEAN_ANOMALY":"150.2687","LAUNCH_DATE":"2022-02-21","ELEMENT_SET_NO":"999","MEAN_MOTION_DOT":"0.00063081","NORAD_CAT_ID":"51751","MEAN_MOTION":"15.73076578","COUNTRY_CODE":"US","DECAY_DATE":null,"OBJECT_ID":"2022-016AP","EPHEMERIS_TYPE":"0","RA_OF_ASC_NODE":"230.7365","INCLINATION":"53.2134","CLASSIFICATION_TYPE":"U","GP_ID":"201423808","SEMIMAJOR_AXIS":"6728.247","REV_AT_EPOCH":"371","EPOCH":"2022-04-16T22:00:01.999584","MEAN_ELEMENT_THEORY":"SGP4","FILE":"3404767","SITE":"AFETR","PERIOD":"91.540","APOAPSIS":"351.503","BSTAR":"0.00045286000000","TIME_SYSTEM":"UTC","PERIAPSIS":"348.721","OBJECT_TYPE":"PAYLOAD","TLE_LINE2":"2 51751  53.2134 230.7365 0002067  21.9620 150.2687 15.73076578  3719","ECCENTRICITY":"0.00020670"},{"MEAN_ELEMENT_THEORY":"SGP4","SEMIMAJOR_AXIS":"6728.204","EPOCH":"2022-04-16T22:00:01.999584","REV_AT_EPOCH":"371","CLASSIFICATION_TYPE":"U","RA_OF_ASC_NODE":"230.7345","INCLINATION":"53.2140","GP_ID":"201423630","ECCENTRICITY":"0.00020530","TIME_SYSTEM":"UTC","PERIAPSIS":"348.687","TLE_LINE2":"2 51752  53.2140 230.7345 0002053  18.9829 155.8199 15.73091837  3711","OBJECT_TYPE":"PAYLOAD","SITE":"AFETR","BSTAR":"0.00048950000000","PERIOD":"91.539","APOAPSIS":"351.450","FILE":"3404767","LAUNCH_DATE":"2022-02-21","ELEMENT_SET_NO":"999","MEAN_ANOMALY":"155.8199","TLE_LINE1":"1 51752U 22016AQ  22106.91668981  .00068323  00000-0  48950-3 0  9991","RCS_SIZE":"LARGE","ARG_OF_PERICENTER":"18.9829","OBJECT_NAME":"STARLINK-3511","MEAN_MOTION_DDOT":"0.0000000000000","CENTER_NAME":"EARTH","REF_FRAME":"TEME","EPHEMERIS_TYPE":"0","DECAY_DATE":null,"OBJECT_ID":"2022-016AQ","COUNTRY_CODE":"US","MEAN_MOTION":"15.73091837","MEAN_MOTION_DOT":"0.00068323","NORAD_CAT_ID":"51752"},{"FILE":"3404767","PERIOD":"91.538","APOAPSIS":"351.389","BSTAR":"0.00045277000000","SITE":"AFETR","OBJECT_TYPE":"PAYLOAD","TLE_LINE2":"2 51753  53.2136 230.7353 0002079  20.0796 153.3911 15.73119162  3718","TIME_SYSTEM":"UTC","PERIAPSIS":"348.592","ECCENTRICITY":"0.00020790","GP_ID":"201423366","RA_OF_ASC_NODE":"230.7353","CLASSIFICATION_TYPE":"U","INCLINATION":"53.2136","EPOCH":"2022-04-16T22:00:01.999584","REV_AT_EPOCH":"371","SEMIMAJOR_AXIS":"6728.126","MEAN_ELEMENT_THEORY":"SGP4","NORAD_CAT_ID":"51753","MEAN_MOTION_DOT":"0.00063185","MEAN_MOTION":"15.73119162","COUNTRY_CODE":"US","OBJECT_ID":"2022-016AR","DECAY_DATE":null,"EPHEMERIS_TYPE":"0","REF_FRAME":"TEME","CENTER_NAME":"EARTH","MEAN_MOTION_DDOT":"0.0000000000000","OBJECT_NAME":"STARLINK-3507","ARG_OF_PERICENTER":"20.0796","RCS_SIZE":"LARGE","TLE_LINE1":"1 51753U 22016AR  22106.91668981  .00063185  00000-0  45277-3 0  9992","MEAN_ANOMALY":"153.3911","LAUNCH_DATE":"2022-02-21","ELEMENT_SET_NO":"999"}];
